{"type": "FeatureCollection", "features": [ {"type": "Feature", "properties": {"norad_id": 31456, "name": "FENGYUN 1C DEB", "group": "fengyun-1c-debris", "lat": 46.99573281865164, "lon": -70.87071057795634, "alt_km": 787.857521209633, "timestamp": "2025-12-23T09:49:07.365959+00:00", "meta": {"OBJECT_NAME": "FENGYUN 1C DEB", "OBJECT_ID": "1999-025BUU", "EPOCH": "2025-12-21T12:15:10.274112", "MEAN_MOTION": 14.42440771, "ECCENTRICITY": 0.00676954, "INCLINATION": 98.5778, "RA_OF_ASC_NODE": 97.9069, "ARG_OF_PERICENTER": 287.6783, "MEAN_ANOMALY": 71.7024, "EPHEMERIS_TYPE": 0, "CLASSIFICATION_TYPE": "U", "NORAD_CAT_ID": 31456, "ELEMENT_SET_NO": 999, "REV_AT_EPOCH": 97593, "BSTAR": 0.00065261746, "MEAN_MOTION_DOT": 2.174e-05, "MEAN_MOTION_DDOT": 0}, "tle": {"line1": "1 31456U 99025BUU 25355.51053558  .00002174  00000+0  65262-3 0  9993", "line2": "2 31456  98.5778  97.9069 0067695 287.6783  71.7024 14.42440771975937"}}, "geometry": {"type": "Point", "coordinates": [-70.87071057795634, 46.99573281865164]}}, {"type": "Feature", "properties": {"norad_id": 31459, "name": "FENGYUN 1C DEB", "group": "fengyun-1c-debris", "lat": 37.328950266938286, "lon": 91.5573269119203, "alt_km": 692.5263651646337, "timestamp": "2025-12-23T09:49:07.365970+00:00", "meta": {"OBJECT_NAME": "FENGYUN 1C DEB", "OBJECT_ID": "1999-025BUX", "EPOCH": "2025-12-12T23:44:38.705568", "MEAN_MOTION": 14.44083824, "ECCENTRICITY": 0.00940456, "INCLINATION": 98.1765, "RA_OF_ASC_NODE": 255.2445, "ARG_OF_PERICENTER": 130.906, "MEAN_ANOMALY": 230.0325, "EPHEMERIS_TYPE": 0, "CLASSIFICATION_TYPE": "U", "NORAD_CAT_ID": 31459, "ELEMENT_SET_NO": 999, "REV_AT_EPOCH": 64561, "BSTAR": 0.0020176648, "MEAN_MOTION_DOT": 7.253e-05, "MEAN_MOTION_DDOT": 0}, "tle": {"line1": "1 31459U 99025BUX 25346.98933687  .00007253  00000+0  20177-2 0  9995", "line2": "2 31459  98.1765 255.2445 0094045 130.9060 230.0325 14.44083824645613"}}, "geometry": {"type": "Point", "coordinates": [91.5573269119203, 37.328950266938286]}}, {"type": "Feature", "properties": {"norad_id": 31462, "name": "FENGYUN 1C DEB", "group": "fengyun-1c-debris", "lat": -27.998311848651973, "lon": -169.16637824144308, "alt_km": 835.3551022683714, "timestamp": "2025-12-23T09:49:07.365982+00:00", "meta": {"OBJECT_NAME": "FENGYUN 1C DEB", "OBJECT_ID": "1999-025BVA", "EPOCH": "2025-12-22T13:11:27.568896", "MEAN_MOTION": 14.13022344, "ECCENTRICITY": 0.00325464, "INCLINATION": 98.689, "RA_OF_ASC_NODE": 14.663, "ARG_OF_PERICENTER": 176.2989, "MEAN_ANOMALY": 342.0684, "EPHEMERIS_TYPE": 0, "CLASSIFICATION_TYPE": "U", "NORAD_CAT_ID": 31462, "ELEMENT_SET_NO": 999, "REV_AT_EPOCH": 95994, "BSTAR": 0.00028157306, "MEAN_MOTION_DOT": 4.85e-06, "MEAN_MOTION_DDOT": 0}, "tle": {"line1": "1 31462U 99025BVA 25356.54962464  .00000485  00000+0  28157-3 0  9994", "line2": "2 31462  98.6890  14.6630 0032546 176.2989 342.0684 14.13022344959947"}}, "geometry": {"type": "Point", "coordinates": [-169.16637824144308, -27.998311848651973]}}, {"type": "Feature", "properties": {"norad_id": 31463, "name": "FENGYUN 1C DEB", "group": "fengyun-1c-debris", "lat": 12.21494466479439, "lon": -22.29709177416241, "alt_km": 617.5788243668158, "timestamp": "2025-12-23T09:49:07.365993+00:00", "meta": {"OBJECT_NAME": "FENGYUN 1C DEB", "OBJECT_ID": "1999-025BVB", "EPOCH": "2025-12-22T05:21:19.853280", "MEAN_MOTION": 14.36983339, "ECCENTRICITY": 0.02132467, "INCLINATION": 99.0814, "RA_OF_ASC_NODE": 338.4354, "ARG_OF_PERICENTER": 12.1144, "MEAN_ANOMALY": 348.5055, "EPHEMERIS_TYPE": 0, "CLASSIFICATION_TYPE": "U", "NORAD_CAT_ID": 31463, "ELEMENT_SET_NO": 999, "REV_AT_EPOCH": 64856, "BSTAR": 0.00056610712, "MEAN_MOTION_DOT": 2.122e-05, "MEAN_MOTION_DDOT": 0}, "tle": {"line1": "1 31463U 99025BVB 25356.22314645  .00002122  00000+0  56611-3 0  9998", "line2": "2 31463  99.0814 338.4354 0213246  12.1144 348.5055 14.36983339648569"}}, "geometry": {"type": "Point", "coordinates": [-22.29709177416241, 12.21494466479439]}}, {"type": "Feature", "properties": {"norad_id": 31464, "name": "FENGYUN 1C DEB", "group": "fengyun-1c-debris", "lat": 48.4753959900868, "lon": -125.93744454764365, "alt_km": 841.3634310696134, "timestamp": "2025-12-23T09:49:07.366005+00:00", "meta": {"OBJECT_NAME": "FENGYUN 1C DEB", "OBJECT_ID": "1999-025BVC", "EPOCH": "2025-12-22T09:28:15.906720", "MEAN_MOTION": 14.12487173, "ECCENTRICITY": 0.00435645, "INCLINATION": 98.7934, "RA_OF_ASC_NODE": 42.9998, "ARG_OF_PERICENTER": 214.4792, "MEAN_ANOMALY": 160.9614, "EPHEMERIS_TYPE": 0, "CLASSIFICATION_TYPE": "U", "NORAD_CAT_ID": 31464, "ELEMENT_SET_NO": 999, "REV_AT_EPOCH": 94816, "BSTAR": 0.00027917728, "MEAN_MOTION_DOT": 4.77e-06, "MEAN_MOTION_DDOT": 0}, "tle": {"line1": "1 31464U 99025BVC 25356.39462855  .00000477  00000+0  27918-3 0  9993", "line2": "2 31464  98.7934  42.9998 0043564 214.4792 160.9614 14.12487173948165"}}, "geometry": {"type": "Point", "coordinates": [-125.93744454764365, 48.4753959900868]}}, {"type": "Feature", "properties": {"norad_id": 31466, "name": "FENGYUN 1C DEB", "group": "fengyun-1c-debris", "lat": -72.4971858957787, "lon": 77.13286711634265, "alt_km": 638.8920165286854, "timestamp": "2025-12-23T09:49:07.366015+00:00", "meta": {"OBJECT_NAME": "FENGYUN 1C DEB", "OBJECT_ID": "1999-025BVE", "EPOCH": "2025-12-16T02:14:17.384928", "MEAN_MOTION": 14.1852535, "ECCENTRICITY": 0.02990788, "INCLINATION": 99.0889, "RA_OF_ASC_NODE": 280.1326, "ARG_OF_PERICENTER": 299.2838, "MEAN_ANOMALY": 57.8749, "EPHEMERIS_TYPE": 0, "CLASSIFICATION_TYPE": "U", "NORAD_CAT_ID": 31466, "ELEMENT_SET_NO": 999, "REV_AT_EPOCH": 96376, "BSTAR": 0.00020920335, "MEAN_MOTION_DOT": 6.16e-06, "MEAN_MOTION_DDOT": 0}, "tle": {"line1": "1 31466U 99025BVE 25350.09325677  .00000616  00000+0  20920-3 0  9997", "line2": "2 31466  99.0889 280.1326 0299078 299.2838  57.8749 14.18525350963768"}}, "geometry": {"type": "Point", "coordinates": [77.13286711634265, -72.4971858957787]}}, {"type": "Feature", "properties": {"norad_id": 31468, "name": "FENGYUN 1C DEB", "group": "fengyun-1c-debris", "lat": -26.82746842702126, "lon": -2.6985057628527964, "alt_km": 854.4314792693522, "timestamp": "2025-12-23T09:49:07.366026+00:00", "meta": {"OBJECT_NAME": "FENGYUN 1C DEB", "OBJECT_ID": "1999-025BVG", "EPOCH": "2025-12-15T17:40:52.277088", "MEAN_MOTION": 14.46598121, "ECCENTRICITY": 0.01665536, "INCLINATION": 98.1678, "RA_OF_ASC_NODE": 345.7354, "ARG_OF_PERICENTER": 157.6429, "MEAN_ANOMALY": 203.2135, "EPHEMERIS_TYPE": 0, "CLASSIFICATION_TYPE": "U", "NORAD_CAT_ID": 31468, "ELEMENT_SET_NO": 999, "REV_AT_EPOCH": 67415, "BSTAR": 0.00027310227, "MEAN_MOTION_DOT": 1.122e-05, "MEAN_MOTION_DDOT": 0}, "tle": {"line1": "1 31468U 99025BVG 25349.73671617  .00001122  00000+0  27310-3 0  9999", "line2": "2 31468  98.1678 345.7354 0166553 157.6429 203.2135 14.46598121674154"}}, "geometry": {"type": "Point", "coordinates": [-2.6985057628527964, -26.82746842702126]}}, {"type": "Feature", "properties": {"norad_id": 31473, "name": "FENGYUN 1C DEB", "group": "fengyun-1c-debris", "lat": -18.527364500539694, "lon": -152.61517839160828, "alt_km": 834.9287487848478, "timestamp": "2025-12-23T09:49:07.366035+00:00", "meta": {"OBJECT_NAME": "FENGYUN 1C DEB", "OBJECT_ID": "1999-025BVM", "EPOCH": "2025-12-19T07:45:43.627968", "MEAN_MOTION": 14.29830542, "ECCENTRICITY": 0.0064578, "INCLINATION": 98.5452, "RA_OF_ASC_NODE": 26.2636, "ARG_OF_PERICENTER": 355.3694, "MEAN_ANOMALY": 64.8933, "EPHEMERIS_TYPE": 0, "CLASSIFICATION_TYPE": "U", "NORAD_CAT_ID": 31473, "ELEMENT_SET_NO": 999, "REV_AT_EPOCH": 69615, "BSTAR": 0.0010461, "MEAN_MOTION_DOT": 2.708e-05, "MEAN_MOTION_DDOT": 0}, "tle": {"line1": "1 31473U 99025BVM 25353.32342162  .00002708  00000+0  10461-2 0  9994", "line2": "2 31473  98.5452  26.2636 0064578 355.3694  64.8933 14.29830542696151"}}, "geometry": {"type": "Point", "coordinates": [-152.61517839160828, -18.527364500539694]}}, {"type": "Feature", "properties": {"norad_id": 31474, "name": "FENGYUN 1C DEB", "group": "fengyun-1c-debris", "lat": 71.22043692890921, "lon": -108.27348366818697, "alt_km": 832.359417807992, "timestamp": "2025-12-23T09:49:07.366046+00:00", "meta": {"OBJECT_NAME": "FENGYUN 1C DEB", "OBJECT_ID": "1999-025BVN", "EPOCH": "2025-12-17T20:31:53.420160", "MEAN_MOTION": 14.10616871, "ECCENTRICITY": 0.00720818, "INCLINATION": 99.1448, "RA_OF_ASC_NODE": 37.8022, "ARG_OF_PERICENTER": 192.292, "MEAN_ANOMALY": 167.6494, "EPHEMERIS_TYPE": 0, "CLASSIFICATION_TYPE": "U", "NORAD_CAT_ID": 31474, "ELEMENT_SET_NO": 999, "REV_AT_EPOCH": 95042, "BSTAR": 0.0012018353, "MEAN_MOTION_DOT": 2.151e-05, "MEAN_MOTION_DDOT": 0}, "tle": {"line1": "1 31474U 99025BVN 25351.85547940  .00002151  00000+0  12018-2 0  9994", "line2": "2 31474  99.1448  37.8022 0072081 192.2920 167.6494 14.10616871950423"}}, "geometry": {"type": "Point", "coordinates": [-108.27348366818697, 71.22043692890921]}}, {"type": "Feature", "properties": {"norad_id": 31475, "name": "FENGYUN 1C DEB", "group": "fengyun-1c-debris", "lat": 39.093203681001036, "lon": -120.80327601897615, "alt_km": 637.7703672326006, "timestamp": "2025-12-23T09:49:07.366056+00:00", "meta": {"OBJECT_NAME": "FENGYUN 1C DEB", "OBJECT_ID": "1999-025BVP", "EPOCH": "2025-12-19T10:28:07.826880", "MEAN_MOTION": 14.38229, "ECCENTRICITY": 0.0211787, "INCLINATION": 98.9397, "RA_OF_ASC_NODE": 242.4077, "ARG_OF_PERICENTER": 87.4314, "MEAN_ANOMALY": 275.1095, "EPHEMERIS_TYPE": 0, "CLASSIFICATION_TYPE": "U", "NORAD_CAT_ID": 31475, "ELEMENT_SET_NO": 999, "REV_AT_EPOCH": 96175, "BSTAR": 0.000435, "MEAN_MOTION_DOT": 1.661e-05, "MEAN_MOTION_DDOT": 0}, "tle": {"line1": "1 31475U 99025BVP 25353.43620170  .00001661  00000+0  43500-3 0  9994", "line2": "2 31475  98.9397 242.4077 0211787  87.4314 275.1095 14.38229000961752"}}, "geometry": {"type": "Point", "coordinates": [-120.80327601897615, 39.093203681001036]}}]}